NORAD_CAT_ID,OBJECT_NAME,OBJECT_TYPE,EPOCH,MEAN_MOTION,ECCENTRICITY,INCLINATION,RA_OF_ASC_NODE,ARG_OF_PERICENTER,MEAN_ANOMALY,BSTAR,MEAN_MOTION_DOT,MEAN_MOTION_DDOT,TLE_LINE0,TLE_LINE1,TLE_LINE2,SEMIMAJOR_AXIS,PERIOD,APOGEE,PERIGEE,DECAYED
51111.0,STARLINK-3173,PAYLOAD,2023-05-13 12:25:35,15.08841815,9.46e-05,53.2161,238.2283,89.7812,270.3289,9.4757e-05,1.221e-05,0.0,0 STARLINK-3173,1 51111U 22005H   23133.51776777  .00001221  00000-0  94757-4 0  9999,2 51111  53.2161 238.2283 0000946  89.7812 270.3289 15.08841815 73205,6917.875,95.437,540.394,539.085,0.0
51111.0,STARLINK-3173,PAYLOAD,2023-05-13 14:00:58,15.08848529,8.98e-05,53.2169,237.9293,92.9418,267.1677,5.0821e-05,5.21e-06,0.0,0 STARLINK-3173,1 51111U 22005H   23133.58400466  .00000521  00000-0  50821-4 0  9991,2 51111  53.2169 237.9293 0000898  92.9418 267.1677 15.08848529 73219,6917.854,95.437,540.341,539.098,0.0
51111.0,STARLINK-3173,PAYLOAD,2023-05-14 12:16:26,15.08619391,0.0002285,53.2179,233.7778,83.6009,276.5243,0.0028494,0.00045078,0.0,0 STARLINK-3173,1 51111U 22005H   23134.51141646  .00045078  00000-0  28494-2 0  9992,2 51111  53.2179 233.7778 0002285  83.6009 276.5243 15.08619391 74461,6918.555,95.452,542.001,538.839,0.0
51111.0,STARLINK-3173,PAYLOAD,2023-05-14 13:51:46,15.08831339,0.000106,53.2167,233.4704,88.173,271.9383,-2.8314e-05,-7.38e-06,0.0,0 STARLINK-3173,1 51111U 22005H   23134.57761926 -.00000738  00000-0 -28314-4 0  9996,2 51111  53.2167 233.4704 0001060  88.1730 271.9383 15.08831339 73365,6917.907,95.438,540.505,539.039,0.0
51111.0,STARLINK-3173,PAYLOAD,2023-05-14 18:37:54,15.08841124,9.59e-05,53.216,232.5795,93.0688,267.0414,6.1324e-05,6.88e-06,0.0,0 STARLINK-3173,1 51111U 22005H   23134.77633077  .00000688  00000-0  61324-4 0  9993,2 51111  53.2160 232.5795 0000959  93.0688 267.0414 15.08841124 73398,6917.877,95.437,540.405,539.079,0.0
51111.0,STARLINK-3173,PAYLOAD,2023-05-14 23:24:05,15.08826446,0.000105,53.217,231.6885,100.1845,259.9265,-4.9701e-05,-1.078e-05,0.0,0 STARLINK-3173,1 51111U 22005H   23134.97506362 -.00001078  00000-0 -49701-4 0  9992,2 51111  53.2170 231.6885 0001050 100.1845 259.9265 15.08826446 74538,6917.922,95.438,540.513,539.06,0.0
51111.0,STARLINK-3173,PAYLOAD,2023-05-15 12:07:09,15.08843481,8.34e-05,53.2163,229.3075,96.1158,263.9929,-2.1651e-05,-6.32e-06,0.0,0 STARLINK-3173,1 51111U 22005H   23135.50497437 -.00000632  00000-0 -21651-4 0  9993,2 51111  53.2163 229.3075 0000834  96.1158 263.9929 15.08843481 73501,6917.87,95.437,540.312,539.158,0.0
51111.0,STARLINK-3173,PAYLOAD,2023-05-15 13:42:32,15.0884257,9.28e-05,53.2161,229.01,85.9241,274.1857,3.4409e-05,2.6e-06,0.0,0 STARLINK-3173,1 51111U 22005H   23135.57121341  .00000260  00000-0  34409-4 0  9998,2 51111  53.2161 229.0100 0000928  85.9241 274.1857 15.08842570 74624,6917.873,95.437,540.38,539.096,0.0
51111.0,STARLINK-3173,PAYLOAD,2023-05-15 15:17:55,15.08845601,9.78e-05,53.2163,228.7129,91.9905,268.1199,6.6981e-05,7.79e-06,0.0,0 STARLINK-3173,1 51111U 22005H   23135.63745053  .00000779  00000-0  66981-4 0  9992,2 51111  53.2163 228.7129 0000978  91.9905 268.1199 15.08845601 73520,6917.863,95.437,540.405,539.052,0.0
51111.0,STARLINK-3173,PAYLOAD,2023-05-16 11:57:57,15.08836979,0.0001104,53.2169,224.847,96.7644,263.3474,8.7483e-05,1.105e-05,0.0,0 STARLINK-3173,1 51111U 22005H   23136.49857883  .00001105  00000-0  87483-4 0  9996,2 51111  53.2169 224.8470 0001104  96.7644 263.3474 15.08836979 74765,6917.89,95.438,540.518,538.991,0.0
51111.0,STARLINK-3173,PAYLOAD,2023-05-16 15:08:43,15.0883997,0.0001123,53.2166,224.251,99.6509,260.461,0.00010972,1.459e-05,0.0,0 STARLINK-3173,1 51111U 22005H   23136.63105619  .00001459  00000-0  10972-3 0  9995,2 51111  53.2166 224.2510 0001123  99.6509 260.4610 15.08839970 73677,6917.88,95.438,540.522,538.969,0.0
51111.0,STARLINK-3173,PAYLOAD,2023-05-17 10:13:21,15.08813544,8.5e-05,53.2171,220.6822,112.8005,247.3077,0.00051229,7.869e-05,0.0,0 STARLINK-3173,1 51111U 22005H   23137.42594626  .00007869  00000-0  51229-3 0  9994,2 51111  53.2171 220.6822 0000850 112.8005 247.3077 15.08813544 74901,6917.961,95.439,540.414,539.238,0.0
51111.0,STARLINK-3173,PAYLOAD,2023-05-17 14:59:29,15.0884764,0.0001188,53.2171,219.7894,103.1715,256.941,0.00011065,1.474e-05,0.0,0 STARLINK-3173,1 51111U 22005H   23137.62465032  .00001474  00000-0  11065-3 0  9994,2 51111  53.2171 219.7894 0001188 103.1715 256.9410 15.08847640 74939,6917.857,95.437,540.544,538.9,0.0
51111.0,STARLINK-3173,PAYLOAD,2023-05-17 22:56:26,15.08835011,0.0001293,53.2181,218.2944,120.7879,239.3241,1.0937e-05,-1.14e-06,0.0,0 STARLINK-3173,1 51111U 22005H   23137.95585971 -.00000114  00000-0  10937-4 0  9994,2 51111  53.2181 218.2944 0001293 120.7879 239.3241 15.08835011 74984,6917.896,95.438,540.655,538.866,0.0
51111.0,STARLINK-3173,PAYLOAD,2023-05-18 11:39:31,15.08834346,0.0001006,53.2156,215.9261,95.6092,264.5015,-2.241e-05,-6.44e-06,0.0,0 STARLINK-3173,1 51111U 22005H   23138.48578380 -.00000644  00000-0 -22410-4 0  9997,2 51111  53.2156 215.9261 0001006  95.6092 264.5015 15.08834346 73956,6917.898,95.438,540.459,539.067,0.0
51111.0,STARLINK-3173,PAYLOAD,2023-05-18 14:50:17,15.08834703,9.93e-05,53.2157,215.3313,95.9947,264.1159,-2.2521e-05,-6.46e-06,0.0,0 STARLINK-3173,1 51111U 22005H   23138.61826388 -.00000646  00000-0 -22521-4 0  9991,2 51111  53.2157 215.3313 0000993  95.9947 264.1159 15.08834703 73979,6917.897,95.438,540.449,539.075,0.0
51111.0,STARLINK-3173,PAYLOAD,2023-05-19 09:54:54,15.0884829,9.83e-05,53.2156,211.7639,88.7912,271.3193,9.5087e-05,1.226e-05,0.0,0 STARLINK-3173,1 51111U 22005H   23139.41313223  .00001226  00000-0  95087-4 0  9999,2 51111  53.2156 211.7639 0000983  88.7912 271.3193 15.08848290 75202,6917.855,95.437,540.4,539.04,0.0
51111.0,STARLINK-3173,PAYLOAD,2023-05-19 11:30:17,15.08851742,9.2e-05,53.2162,211.4668,78.9624,281.1471,6.2451e-05,7.07e-06,0.0,0 STARLINK-3173,1 51111U 22005H   23139.47937092  .00000707  00000-0  62451-4 0  9993,2 51111  53.2162 211.4668 0000920  78.9624 281.1471 15.08851742 74102,6917.844,95.437,540.346,539.073,0.0
51111.0,STARLINK-3173,PAYLOAD,2023-05-20 09:45:41,15.08842873,9.79e-05,53.2162,207.3036,81.9557,278.1547,0.00023569,3.465e-05,0.0,0 STARLINK-3173,1 51111U 22005H   23140.40673260  .00003465  00000-0  23569-3 0  9992,2 51111  53.2162 207.3036 0000979  81.9557 278.1547 15.08842873 75351,6917.872,95.437,540.414,539.059,0.0
51111.0,STARLINK-3173,PAYLOAD,2023-05-20 11:21:04,15.08851989,9.59e-05,53.2162,207.0061,84.738,275.3721,0.00023975,3.531e-05,0.0,0 STARLINK-3173,1 51111U 22005H   23140.47296746  .00003531  00000-0  23975-3 0  9994,2 51111  53.2162 207.0061 0000959  84.7380 275.3721 15.08851989 75361,6917.844,95.437,540.372,539.045,0.0
51111.0,STARLINK-3173,PAYLOAD,2023-05-20 20:53:23,15.08848077,0.0001054,53.2157,205.2214,83.9672,276.144,0.00014769,2.064e-05,0.0,0 STARLINK-3173,1 51111U 22005H   23140.87041148  .00002064  00000-0  14769-3 0  9993,2 51111  53.2157 205.2214 0001054  83.9672 276.1440 15.08848077 74312,6917.856,95.437,540.45,538.992,0.0
51111.0,STARLINK-3173,PAYLOAD,2023-05-21 09:36:28,15.08846685,0.0001053,53.215,202.8433,82.4024,277.7087,3.8245e-06,-2.27e-06,0.0,0 STARLINK-3173,1 51111U 22005H   23141.40032976 -.00000227  00000-0  38245-5 0  9999,2 51111  53.2150 202.8433 0001053  82.4024 277.7087 15.08846685 74390,6917.86,95.437,540.453,538.997,0.0
51111.0,STARLINK-3173,PAYLOAD,2023-05-21 20:44:09,15.08857357,9.79e-05,53.215,200.7606,126.849,233.2592,-0.00060728,-9.944e-05,0.0,0 STARLINK-3173,1 51111U 22005H   23141.86399971 -.00009944  00000-0 -60728-3 0  9995,2 51111  53.2150 200.7606 0000979 126.8490 233.2592 15.08857357 74469,6917.827,95.436,540.37,539.015,0.0
51111.0,STARLINK-3173,PAYLOAD,2023-05-22 04:41:06,15.08832115,0.0001123,53.2141,199.276,99.6754,260.4364,-0.00023193,-3.976e-05,0.0,0 STARLINK-3173,1 51111U 22005H   23142.19521733 -.00003976  00000-0 -23193-3 0  9999,2 51111  53.2141 199.2760 0001123  99.6754 260.4364 15.08832115 75627,6917.904,95.438,540.546,538.993,0.0
51111.0,STARLINK-3173,PAYLOAD,2023-05-22 11:02:39,15.0883266,0.0001131,53.2139,198.0871,103.0036,257.1083,-0.00018099,-3.166e-05,0.0,0 STARLINK-3173,1 51111U 22005H   23142.46017778 -.00003166  00000-0 -18099-3 0  9998,2 51111  53.2139 198.0871 0001131 103.0036 257.1083 15.08832660 74553,6917.903,95.438,540.55,538.985,0.0
51111.0,STARLINK-3173,PAYLOAD,2023-05-22 20:34:58,15.08837013,0.0001127,53.2156,196.3028,98.3693,261.7427,-5.6637e-05,-1.189e-05,0.0,0 STARLINK-3173,1 51111U 22005H   23142.85762255 -.00001189  00000-0 -56637-4 0  9992,2 51111  53.2156 196.3028 0001127  98.3693 261.7427 15.08837013 74614,6917.89,95.438,540.534,538.975,0.0
51111.0,STARLINK-3173,PAYLOAD,2023-05-23 10:53:26,15.08836031,0.0001074,53.2156,193.6262,95.8674,264.2441,4.3583e-05,4.06e-06,0.0,0 STARLINK-3173,1 51111U 22005H   23143.45378310  .00000406  00000-0  43583-4 0  9999,2 51111  53.2156 193.6262 0001074  95.8674 264.2441 15.08836031 75812,6917.893,95.438,540.501,539.015,0.0
51111.0,STARLINK-3173,PAYLOAD,2023-05-23 20:25:45,15.08831744,0.0001034,53.2155,191.8409,108.8877,251.2228,0.00012064,1.632e-05,0.0,0 STARLINK-3173,1 51111U 22005H   23143.85122496  .00001632  00000-0  12064-3 0  9996,2 51111  53.2155 191.8409 0001034 108.8877 251.2228 15.08831744 74768,6917.906,95.438,540.486,539.055,0.0
51111.0,STARLINK-3173,PAYLOAD,2023-05-24 09:08:51,15.08834779,9.65e-05,53.2153,189.4615,83.6919,276.4183,0.00012325,1.674e-05,0.0,0 STARLINK-3173,1 51111U 22005H   23144.38114680  .00001674  00000-0  12325-3 0  9997,2 51111  53.2153 189.4615 0000965  83.6919 276.4183 15.08834779 74846,6917.896,95.438,540.429,539.094,0.0
51111.0,STARLINK-3173,PAYLOAD,2023-05-26 02:28:52,15.08841975,0.0001105,53.2157,181.7305,79.6118,280.4998,8.0175e-05,9.88e-06,0.0,0 STARLINK-3173,1 51111U 22005H   23146.10338442  .00000988  00000-0  80175-4 0  9999,2 51111  53.2157 181.7305 0001105  79.6118 280.4998 15.08841975 76212,6917.874,95.437,540.504,538.975,0.0
